start=new Date('2022-07-31T00:00:00.000Z').valueOf();
sats=[{"SEMIMAJOR_AXIS":"6917.923","NORAD_CAT_ID":"52134","EPOCH":"2022-07-30T22:00:00.999936","BSTAR":"0.00233700000000","OBJECT_ID":"2022-029AY","TLE_LINE1":"1 52134U 22029AY  22211.91667824  .00037088  00000-0  23370-2 0  9994","ECCENTRICITY":"0.00020540","DECAY_DATE":null,"RCS_SIZE":"LARGE","SITE":"AFETR","MEAN_ANOMALY":"83.1639","INCLINATION":"53.2144","REF_FRAME":"TEME","GP_ID":"209229089","FILE":"3525638","REV_AT_EPOCH":"130","MEAN_MOTION":"15.08825978","MEAN_ELEMENT_THEORY":"SGP4","PERIOD":"95.438","MEAN_MOTION_DOT":"0.00037088","ARG_OF_PERICENTER":"54.0140","PERIAPSIS":"538.367","TIME_SYSTEM":"UTC","LAUNCH_DATE":"2022-03-19","CLASSIFICATION_TYPE":"U","ELEMENT_SET_NO":"999","RA_OF_ASC_NODE":"224.8176","APOAPSIS":"541.209","CENTER_NAME":"EARTH","COUNTRY_CODE":"US","MEAN_MOTION_DDOT":"0.0000000000000","TLE_LINE2":"2 52134  53.2144 224.8176 0002054  54.0140  83.1639 15.08825978  1308","EPHEMERIS_TYPE":"0","OBJECT_NAME":"STARLINK-3721","OBJECT_TYPE":"PAYLOAD"},{"ARG_OF_PERICENTER":"56.6425","PERIAPSIS":"538.751","TIME_SYSTEM":"UTC","MEAN_MOTION":"15.08818968","GP_ID":"209227837","FILE":"3525638","REV_AT_EPOCH":"130","PERIOD":"95.439","MEAN_ELEMENT_THEORY":"SGP4","MEAN_MOTION_DOT":"0.00037086","RA_OF_ASC_NODE":"224.8154","APOAPSIS":"540.868","LAUNCH_DATE":"2022-03-19","CLASSIFICATION_TYPE":"U","ELEMENT_SET_NO":"999","MEAN_MOTION_DDOT":"0.0000000000000","COUNTRY_CODE":"US","CENTER_NAME":"EARTH","EPHEMERIS_TYPE":"0","OBJECT_NAME":"STARLINK-3729","OBJECT_TYPE":"PAYLOAD","TLE_LINE2":"2 52135  53.2159 224.8154 0001530  56.6425 160.5498 15.08818968  1307","TLE_LINE1":"1 52135U 22029AZ  22211.91667824  .00037086  00000-0  23374-2 0  9997","DECAY_DATE":null,"ECCENTRICITY":"0.00015300","SEMIMAJOR_AXIS":"6917.945","NORAD_CAT_ID":"52135","BSTAR":"0.00233740000000","EPOCH":"2022-07-30T22:00:00.999936","OBJECT_ID":"2022-029AZ","MEAN_ANOMALY":"160.5498","INCLINATION":"53.2159","SITE":"AFETR","RCS_SIZE":"LARGE","REF_FRAME":"TEME"},{"REF_FRAME":"TEME","SITE":"AFETR","RCS_SIZE":"LARGE","MEAN_ANOMALY":"113.8991","INCLINATION":"53.2150","NORAD_CAT_ID":"52136","SEMIMAJOR_AXIS":"6917.955","OBJECT_ID":"2022-029BA","BSTAR":"0.00225920000000","EPOCH":"2022-07-30T22:00:00.999936","TLE_LINE1":"1 52136U 22029BA  22211.91667824  .00035826  00000-0  22592-2 0  9999","DECAY_DATE":null,"ECCENTRICITY":"0.00014330","TLE_LINE2":"2 52136  53.2150 224.8164 0001433  63.2545 113.8991 15.08815718  1308","OBJECT_NAME":"STARLINK-3720","EPHEMERIS_TYPE":"0","OBJECT_TYPE":"PAYLOAD","CENTER_NAME":"EARTH","COUNTRY_CODE":"US","MEAN_MOTION_DDOT":"0.0000000000000","LAUNCH_DATE":"2022-03-19","CLASSIFICATION_TYPE":"U","ELEMENT_SET_NO":"999","APOAPSIS":"540.811","RA_OF_ASC_NODE":"224.8164","GP_ID":"209228087","REV_AT_EPOCH":"130","FILE":"3525638","MEAN_MOTION":"15.08815718","PERIOD":"95.439","MEAN_MOTION_DOT":"0.00035826","MEAN_ELEMENT_THEORY":"SGP4","PERIAPSIS":"538.828","ARG_OF_PERICENTER":"63.2545","TIME_SYSTEM":"UTC"},{"CENTER_NAME":"EARTH","MEAN_MOTION_DDOT":"0.0000000000000","COUNTRY_CODE":"US","TLE_LINE2":"2 52137  53.2149 224.8147 0001537  59.4914 177.7181 15.08810359 21993","OBJECT_NAME":"STARLINK-3733","EPHEMERIS_TYPE":"0","OBJECT_TYPE":"PAYLOAD","REV_AT_EPOCH":"2199","GP_ID":"209201811","FILE":"3525501","MEAN_MOTION":"15.08810359","MEAN_MOTION_DOT":"0.00038564","PERIOD":"95.439","MEAN_ELEMENT_THEORY":"SGP4","PERIAPSIS":"538.773","ARG_OF_PERICENTER":"59.4914","TIME_SYSTEM":"UTC","CLASSIFICATION_TYPE":"U","LAUNCH_DATE":"2022-03-19","ELEMENT_SET_NO":"999","APOAPSIS":"540.899","RA_OF_ASC_NODE":"224.8147","SITE":"AFETR","RCS_SIZE":"LARGE","MEAN_ANOMALY":"177.7181","INCLINATION":"53.2149","REF_FRAME":"TEME","NORAD_CAT_ID":"52137","SEMIMAJOR_AXIS":"6917.971","OBJECT_ID":"2022-029BB","EPOCH":"2022-07-30T22:00:00.999936","BSTAR":"0.00242990000000","TLE_LINE1":"1 52137U 22029BB  22211.91667824  .00038564  00000-0  24299-2 0  9998","DECAY_DATE":null,"ECCENTRICITY":"0.00015370"},{"TLE_LINE2":"2 52138  53.2156 224.8163 0001519  64.3894 132.8205 15.08825649  1302","OBJECT_TYPE":"PAYLOAD","EPHEMERIS_TYPE":"0","OBJECT_NAME":"STARLINK-3723","CENTER_NAME":"EARTH","COUNTRY_CODE":"US","MEAN_MOTION_DDOT":"0.0000000000000","ELEMENT_SET_NO":"999","LAUNCH_DATE":"2022-03-19","CLASSIFICATION_TYPE":"U","RA_OF_ASC_NODE":"224.8163","APOAPSIS":"540.840","PERIOD":"95.438","MEAN_MOTION_DOT":"0.00036470","MEAN_ELEMENT_THEORY":"SGP4","REV_AT_EPOCH":"130","GP_ID":"209229590","FILE":"3525638","MEAN_MOTION":"15.08825649","TIME_SYSTEM":"UTC","ARG_OF_PERICENTER":"64.3894","PERIAPSIS":"538.738","REF_FRAME":"TEME","SITE":"AFETR","RCS_SIZE":"LARGE","INCLINATION":"53.2156","MEAN_ANOMALY":"132.8205","EPOCH":"2022-07-30T22:00:00.999936","BSTAR":"0.00229860000000","OBJECT_ID":"2022-029BC","SEMIMAJOR_AXIS":"6917.924","NORAD_CAT_ID":"52138","ECCENTRICITY":"0.00015190","DECAY_DATE":null,"TLE_LINE1":"1 52138U 22029BC  22211.91667824  .00036470  00000-0  22986-2 0  9994"},{"ELEMENT_SET_NO":"999","LAUNCH_DATE":"2022-03-19","CLASSIFICATION_TYPE":"U","RA_OF_ASC_NODE":"234.8232","APOAPSIS":"541.044","PERIOD":"95.440","MEAN_MOTION_DOT":"0.00042238","MEAN_ELEMENT_THEORY":"SGP4","GP_ID":"209202302","FILE":"3525501","MEAN_MOTION":"15.08804828","REV_AT_EPOCH":"2184","TIME_SYSTEM":"UTC","ARG_OF_PERICENTER":"46.3329","PERIAPSIS":"538.662","TLE_LINE2":"2 52139  53.2143 234.8232 0001722  46.3329 255.8750 15.08804828 21844","OBJECT_TYPE":"PAYLOAD","EPHEMERIS_TYPE":"0","OBJECT_NAME":"STARLINK-3730","CENTER_NAME":"EARTH","MEAN_MOTION_DDOT":"0.0000000000000","COUNTRY_CODE":"US","EPOCH":"2022-07-30T22:00:00.999936","BSTAR":"0.00265870000000","OBJECT_ID":"2022-029BD","SEMIMAJOR_AXIS":"6917.988","NORAD_CAT_ID":"52139","DECAY_DATE":null,"ECCENTRICITY":"0.00017220","TLE_LINE1":"1 52139U 22029BD  22211.91667824  .00042238  00000-0  26587-2 0  9995","REF_FRAME":"TEME","RCS_SIZE":"LARGE","SITE":"AFETR","INCLINATION":"53.2143","MEAN_ANOMALY":"255.8750"},{"MEAN_MOTION_DDOT":"0.0000000000000","COUNTRY_CODE":"US","CENTER_NAME":"EARTH","OBJECT_TYPE":"PAYLOAD","OBJECT_NAME":"STARLINK-3682","EPHEMERIS_TYPE":"0","TLE_LINE2":"2 52140  53.2162 224.8153 0001777  63.6563 193.5631 15.08822999  1304","TIME_SYSTEM":"UTC","PERIAPSIS":"538.568","ARG_OF_PERICENTER":"63.6563","MEAN_ELEMENT_THEORY":"SGP4","PERIOD":"95.439","MEAN_MOTION_DOT":"0.00040230","REV_AT_EPOCH":"130","GP_ID":"209228588","FILE":"3525638","MEAN_MOTION":"15.08822999","APOAPSIS":"541.027","RA_OF_ASC_NODE":"224.8153","ELEMENT_SET_NO":"999","LAUNCH_DATE":"2022-03-19","CLASSIFICATION_TYPE":"U","INCLINATION":"53.2162","MEAN_ANOMALY":"193.5631","SITE":"AFETR","RCS_SIZE":"LARGE","REF_FRAME":"TEME","DECAY_DATE":null,"ECCENTRICITY":"0.00017770","TLE_LINE1":"1 52140U 22029BE  22211.91667824  .00040230  00000-0  25326-2 0  9997","OBJECT_ID":"2022-029BE","EPOCH":"2022-07-30T22:00:00.999936","BSTAR":"0.00253260000000","NORAD_CAT_ID":"52140","SEMIMAJOR_AXIS":"6917.932"},{"TLE_LINE1":"1 52261U 22041A   22211.91667824  .00003365  00000-0  22948-3 0  9991","ECCENTRICITY":"0.00018820","DECAY_DATE":null,"NORAD_CAT_ID":"52261","SEMIMAJOR_AXIS":"6917.920","OBJECT_ID":"2022-041A","BSTAR":"0.00022948000000","EPOCH":"2022-07-30T22:00:00.999936","REF_FRAME":"TEME","MEAN_ANOMALY":"239.1463","INCLINATION":"53.2132","SITE":"AFETR","RCS_SIZE":"LARGE","APOAPSIS":"541.087","RA_OF_ASC_NODE":"264.8273","CLASSIFICATION_TYPE":"U","LAUNCH_DATE":"2022-04-21","ELEMENT_SET_NO":"999","PERIAPSIS":"538.483","ARG_OF_PERICENTER":"38.0377","TIME_SYSTEM":"UTC","REV_AT_EPOCH":"130","GP_ID":"209229859","FILE":"3525638","MEAN_MOTION":"15.08827160","PERIOD":"95.438","MEAN_MOTION_DOT":"0.00003365","MEAN_ELEMENT_THEORY":"SGP4","OBJECT_NAME":"STARLINK-3810","EPHEMERIS_TYPE":"0","OBJECT_TYPE":"PAYLOAD","TLE_LINE2":"2 52261  53.2132 264.8273 0001882  38.0377 239.1463 15.08827160  1303","MEAN_MOTION_DDOT":"0.0000000000000","COUNTRY_CODE":"US","CENTER_NAME":"EARTH"},{"ECCENTRICITY":"0.00017780","DECAY_DATE":null,"TLE_LINE1":"1 52262U 22041B   22211.91667824  .00003889  00000-0  26227-3 0  9997","EPOCH":"2022-07-30T22:00:00.999936","BSTAR":"0.00026227000000","OBJECT_ID":"2022-041B","SEMIMAJOR_AXIS":"6917.875","NORAD_CAT_ID":"52262","REF_FRAME":"TEME","INCLINATION":"53.2131","MEAN_ANOMALY":"208.8534","RCS_SIZE":"LARGE","SITE":"AFETR","RA_OF_ASC_NODE":"264.8274","APOAPSIS":"540.970","ELEMENT_SET_NO":"999","LAUNCH_DATE":"2022-04-21","CLASSIFICATION_TYPE":"U","TIME_SYSTEM":"UTC","ARG_OF_PERICENTER":"43.1785","PERIAPSIS":"538.510","PERIOD":"95.437","MEAN_MOTION_DOT":"0.00003889","MEAN_ELEMENT_THEORY":"SGP4","FILE":"3525638","GP_ID":"209229987","REV_AT_EPOCH":"130","MEAN_MOTION":"15.08841864","OBJECT_TYPE":"PAYLOAD","EPHEMERIS_TYPE":"0","OBJECT_NAME":"STARLINK-3761","TLE_LINE2":"2 52262  53.2131 264.8274 0001778  43.1785 208.8534 15.08841864  1307","MEAN_MOTION_DDOT":"0.0000000000000","COUNTRY_CODE":"US","CENTER_NAME":"EARTH"},{"MEAN_ANOMALY":"210.1369","INCLINATION":"53.2130","SITE":"AFETR","RCS_SIZE":"LARGE","REF_FRAME":"TEME","TLE_LINE1":"1 52263U 22041C   22211.91667824  .00003817  00000-0  25799-3 0  9992","DECAY_DATE":null,"ECCENTRICITY":"0.00015860","SEMIMAJOR_AXIS":"6917.980","NORAD_CAT_ID":"52263","EPOCH":"2022-07-30T22:00:00.999936","BSTAR":"0.00025799000000","OBJECT_ID":"2022-041C","COUNTRY_CODE":"US","MEAN_MOTION_DDOT":"0.0000000000000","CENTER_NAME":"EARTH","EPHEMERIS_TYPE":"0","OBJECT_NAME":"STARLINK-3786","OBJECT_TYPE":"PAYLOAD","TLE_LINE2":"2 52263  53.2130 264.8274 0001586  47.0703 210.1369 15.08807366  1308","ARG_OF_PERICENTER":"47.0703","PERIAPSIS":"538.748","TIME_SYSTEM":"UTC","GP_ID":"209230499","FILE":"3525638","REV_AT_EPOCH":"130","MEAN_MOTION":"15.08807366","PERIOD":"95.440","MEAN_ELEMENT_THEORY":"SGP4","MEAN_MOTION_DOT":"0.00003817","RA_OF_ASC_NODE":"264.8274","APOAPSIS":"540.942","LAUNCH_DATE":"2022-04-21","CLASSIFICATION_TYPE":"U","ELEMENT_SET_NO":"999"}];
